OBJECT_NAME,OBJECT_ID,EPOCH,MEAN_MOTION,ECCENTRICITY,INCLINATION,RA_OF_ASC_NODE,ARG_OF_PERICENTER,MEAN_ANOMALY,EPHEMERIS_TYPE,CLASSIFICATION_TYPE,NORAD_CAT_ID,ELEMENT_SET_NO,REV_AT_EPOCH,BSTAR,MEAN_MOTION_DOT,MEAN_MOTION_DDOT
DUCHIFAT-1,2014-033M,2026-06-14T03:26:03.729408,15.64039026,.00034173,98.0474,223.8762,119.3968,240.7631,0,U,40021,999,65527,.11822122E-2,.112865E-2,0
NANOSATC-BR1,2014-033Q,2026-06-14T14:12:12.655296,15.31384789,.00041799,98.0719,197.7493,169.8700,190.2624,0,U,40024,999,65358,.52029887E-3,.15703E-3,0
QB50P1,2014-033R,2026-06-14T13:54:46.444608,15.18225531,.00076155,98.0959,176.5426,225.5920,134.4689,0,U,40025,999,65263,.39300771E-3,.7974E-4,0
DTUSAT-2,2014-033W,2026-06-14T11:08:00.907296,15.14988518,.00064247,98.0857,163.0180,236.3863,123.6755,0,U,40030,999,65227,.37065172E-3,.6848E-4,0
QB50P2,2014-033Y,2026-06-14T12:35:14.411904,15.15128687,.00077441,98.0744,162.2389,171.6333,188.5028,0,U,40032,999,65226,.34335895E-3,.6365E-4,0
PERSEUS-M1,2014-033AF,2026-06-14T08:38:27.964032,14.95623960,.00105128,97.9644,109.4456,312.2620,47.7708,0,U,40039,999,65021,.10597261E-3,.1117E-4,0
POLYITAN-1,2014-033AJ,2026-06-14T13:44:02.825088,15.33175066,.00084457,98.0937,191.5859,148.6714,211.5031,0,U,40042,999,65319,.53331657E-3,.17042E-3,0
TIGRISAT,2014-033AK,2026-06-14T08:29:04.088256,14.85153048,.00506765,97.7824,315.4300,84.2807,276.4183,0,U,40043,999,64520,.24722153E-3,.211E-4,0
CANX-4,2014-034C,2026-06-14T14:02:21.655104,14.81260440,.00133433,98.3125,40.8025,25.1162,335.0695,0,U,40055,999,64414,.1154038E-3,.843E-5,0
CANX-5,2014-034D,2026-06-14T14:00:08.898048,14.81277632,.00133544,98.3127,40.8443,25.2580,334.9282,0,U,40056,999,63495,.11601912E-3,.848E-5,0
GONETS-M 10,2014-036C,2026-06-14T15:44:07.975968,12.42945578,.00225638,82.5105,309.2468,145.8886,214.3649,0,U,40063,999,54193,-.60815995E-4,.2E-7,0
METEOR-M 2,2014-037A,2026-06-14T14:40:38.890272,14.21461183,.00068466,98.5105,141.4407,50.5456,309.6327,0,U,40069,999,61895,.66545664E-4,.103E-5,0
DX1,2014-037C,2026-06-14T14:35:36.076416,14.89978031,.00057726,98.3862,127.1529,286.8774,73.1809,0,U,40071,999,64572,.98428097E-4,.886E-5,0
UKUBE-1,2014-037F,2026-06-14T14:09:28.451232,15.13518446,.00025433,98.4229,168.5889,134.4924,225.6513,0,U,40074,999,64816,.42184841E-3,.7481E-4,0
GAOFEN-2,2014-049A,2026-06-14T14:36:38.224800,14.80897961,.00060197,98.0116,229.8183,236.7390,123.3246,0,U,40118,999,63885,.15739533E-3,.1163E-4,0
BRITE-PL2 (HEWELIUSZ),2014-049B,2026-06-14T13:28:18.844608,14.94585543,.00152052,97.9095,277.5411,116.2621,244.0164,0,U,40119,999,64105,.13390095E-3,.1392E-4,0
CBERS 4,2014-079A,2026-06-14T14:20:36.381120,14.35509235,.00019157,98.3538,222.5105,65.6547,294.4839,0,U,40336,999,60358,.13030566E-3,.333E-5,0
SMAP,2015-003A,2026-06-14T13:11:57.063264,14.63364543,.00013029,98.1276,172.6819,95.2165,264.9186,0,U,40376,999,60723,.82480853E-4,.379E-5,0
GONETS-M 11,2015-020A,2026-06-14T14:14:33.186624,12.42877133,.00167504,82.4879,32.6088,11.2969,348.8483,0,U,40552,999,50841,.37848639E-3,.62E-6,0
GONETS-M 12,2015-020B,2026-06-14T13:36:25.215264,12.42890914,.00154779,82.4914,33.7483,356.6652,3.4322,0,U,40553,999,50840,-.13236457E-3,-.8E-7,0
GONETS-M 13,2015-020C,2026-06-14T14:54:05.268384,12.42870166,.0013788,82.4875,32.3305,341.9805,18.0784,0,U,40554,999,50838,.95122128E-4,.23E-6,0
DMC3-FM1,2015-032A,2026-06-14T13:53:27.340224,14.85736131,.00070515,97.6470,30.8564,66.8312,293.3646,0,U,40715,999,58952,.9928161E-4,.811E-5,0
DMC3-FM2,2015-032B,2026-06-14T14:25:13.359648,14.85744319,.00076759,97.6526,32.4498,70.9814,289.2233,0,U,40716,999,58952,.14250371E-3,.1186E-4,0
DMC3-FM3,2015-032C,2026-06-14T14:58:47.205408,14.85730086,.00068412,97.6578,34.2237,70.7140,289.4815,0,U,40717,999,58953,.11869288E-4,.52E-6,0
CARBONITE 1 (CBNT-1),2015-032D,2026-06-14T14:52:11.047584,14.83579938,.00132973,97.6500,343.7940,307.3895,52.6108,0,U,40718,999,58896,.15676771E-3,.1242E-4,0
LILACSAT-2,2015-049K,2026-06-14T15:03:59.317632,15.51370909,.00053927,97.4647,202.3719,257.3320,102.7329,0,U,40908,999,59535,.27971943E-3,.16375E-3,0
