DUCHIFAT-1              
1 40021U 14033M   26165.14309872  .00112865  00000+0  11822-2 0  9990
2 40021  98.0474 223.8762 0003417 119.3968 240.7631 15.64039026655277
NANOSATC-BR1            
1 40024U 14033Q   26165.59181314  .00015703  00000+0  52030-3 0  9991
2 40024  98.0719 197.7493 0004179 169.8700 190.2624 15.31384789653588
QB50P1                  
1 40025U 14033R   26165.57970422  .00007974  00000+0  39301-3 0  9993
2 40025  98.0959 176.5426 0007615 225.5920 134.4689 15.18225531652638
DTUSAT-2                
1 40030U 14033W   26165.46389939  .00006848  00000+0  37065-3 0  9998
2 40030  98.0857 163.0180 0006424 236.3863 123.6755 15.14988518652273
QB50P2                  
1 40032U 14033Y   26165.52447236  .00006365  00000+0  34336-3 0  9994
2 40032  98.0744 162.2389 0007744 171.6333 188.5028 15.15128687652267
PERSEUS-M1              
1 40039U 14033AF  26165.36004588  .00001117  00000+0  10597-3 0  9995
2 40039  97.9644 109.4456 0010512 312.2620  47.7708 14.95623960650213
POLYITAN-1              
1 40042U 14033AJ  26165.57225492  .00017042  00000+0  53332-3 0  9999
2 40042  98.0937 191.5859 0008445 148.6714 211.5031 15.33175066653192
TIGRISAT                
1 40043U 14033AK  26165.35351954  .00002110  00000+0  24722-3 0  9990
2 40043  97.7824 315.4300 0050676  84.2807 276.4183 14.85153048645206
CANX-4                  
1 40055U 14034C   26165.58497286  .00000843  00000+0  11540-3 0  9993
2 40055  98.3125  40.8025 0013343  25.1162 335.0695 14.81260440644144
CANX-5                  
1 40056U 14034D   26165.58343632  .00000848  00000+0  11602-3 0  9993
2 40056  98.3127  40.8443 0013354  25.2580 334.9282 14.81277632634957
GONETS-M 10             
1 40063U 14036C   26165.65564787  .00000002  00000+0 -60816-4 0  9992
2 40063  82.5105 309.2468 0022563 145.8886 214.3649 12.42945578541934
METEOR-M 2              
1 40069U 14037A   26165.61156123  .00000103  00000+0  66546-4 0  9993
2 40069  98.5105 141.4407 0006846  50.5456 309.6327 14.21461183618959
DX1                     
1 40071U 14037C   26165.60805644  .00000886  00000+0  98428-4 0  9996
2 40071  98.3862 127.1529 0005772 286.8774  73.1809 14.89978031645722
UKUBE-1                 
1 40074U 14037F   26165.58991263  .00007481  00000+0  42185-3 0  9995
2 40074  98.4229 168.5889 0002543 134.4924 225.6513 15.13518446648164
GAOFEN-2                
1 40118U 14049A   26165.60877575  .00001163  00000+0  15740-3 0  9997
2 40118  98.0116 229.8183 0006019 236.7390 123.3246 14.80897961638854
BRITE-PL2 (HEWELIUSZ)   
1 40119U 14049B   26165.56132922  .00001392  00000+0  13390-3 0  9996
2 40119  97.9095 277.5411 0015205 116.2621 244.0164 14.94585543641050
CBERS 4                 
1 40336U 14079A   26165.59764330  .00000333  00000+0  13031-3 0  9993
2 40336  98.3538 222.5105 0001915  65.6547 294.4839 14.35509235603588
SMAP                    
1 40376U 15003A   26165.54996601  .00000379  00000+0  82481-4 0  9994
2 40376  98.1276 172.6819 0001302  95.2165 264.9186 14.63364543607236
GONETS-M 11             
1 40552U 15020A   26165.59343966  .00000062  00000+0  37849-3 0  9990
2 40552  82.4879  32.6088 0016750  11.2969 348.8483 12.42877133508414
GONETS-M 12             
1 40553U 15020B   26165.56695851 -.00000008  00000+0 -13236-3 0  9997
2 40553  82.4914  33.7483 0015477 356.6652   3.4322 12.42890914508403
GONETS-M 13             
1 40554U 15020C   26165.62089431  .00000023  00000+0  95122-4 0  9996
2 40554  82.4875  32.3305 0013788 341.9805  18.0784 12.42870166508386
DMC3-FM1                
1 40715U 15032A   26165.57878866  .00000811  00000+0  99282-4 0  9996
2 40715  97.6470  30.8564 0007051  66.8312 293.3646 14.85736131589528
DMC3-FM2                
1 40716U 15032B   26165.60084907  .00001186  00000+0  14250-3 0  9993
2 40716  97.6526  32.4498 0007675  70.9814 289.2233 14.85744319589523
DMC3-FM3                
1 40717U 15032C   26165.62415747  .00000052  00000+0  11869-4 0  9991
2 40717  97.6578  34.2237 0006841  70.7140 289.4815 14.85730086589531
CARBONITE 1 (CBNT-1)    
1 40718U 15032D   26165.61957231  .00001242  00000+0  15677-3 0  9992
2 40718  97.6500 343.7940 0013297 307.3895  52.6108 14.83579938588961
LILACSAT-2              
1 40908U 15049K   26165.62776988  .00016375  00000+0  27972-3 0  9994
2 40908  97.4647 202.3719 0005392 257.3320 102.7329 15.51370909595356
